*******************************************************************************
Ephemeris / WWW_USER Mon Mar 24 07:01:57 2025 Pasadena, USA      / Horizons    
*******************************************************************************
Target body name: Triton (801)                    {source: nep097_merged}
Center body name: Earth (399)                     {source: nep097_merged}
Center-site name: Mauna Kea
*******************************************************************************
Start time      : A.D. 2018-Nov-15 03:52:00.0000 UT      
Stop  time      : A.D. 2018-Nov-15 16:20:00.0000 UT      
Step-size       : 1 minutes
*******************************************************************************
Target pole/equ : IAU_TRITON                      {East-longitude positive}
Target radii    : 1352.6, 1352.6, 1352.6 km       {Equator_a, b, pole_c}       
Center geodetic : 204.5278, 19.8260847, 4.21024   {E-lon(deg),Lat(deg),Alt(km)}
Center cylindric: 204.5278, 6006.35451, 2151.0229 {E-lon(deg),Dxy(km),Dz(km)}
Center pole/equ : ITRF93                          {East-longitude positive}
Center radii    : 6378.137, 6378.137, 6356.752 km {Equator_a, b, pole_c}       
Target primary  : Neptune
Vis. interferer : MOON (R_eq= 1737.400) km        {source: DE441}
Rel. light bend : Sun                             {source: nep097_merged}
Rel. lght bnd GM: 1.3271E+11 km^3/s^2                                          
Atmos refraction: NO (AIRLESS)
RA format       : HMS
Time format     : CAL 
Calendar mode   : Mixed Julian/Gregorian
RTS-only print  : NO       
EOP file        : eop.250321.p250617                                           
EOP coverage    : DATA-BASED 1962-JAN-20 TO 2025-MAR-21. PREDICTS-> 2025-JUN-16
Units conversion: 1 au= 149597870.700 km, c= 299792.458 km/s, 1 day= 86400.0 s 
Table cut-offs 1: Elevation (-90.0deg=NO ),Airmass (>38.000=NO), Daylight (YES)
Table cut-offs 2: Solar elongation (  0.0,180.0=NO ),Local Hour Angle( 0.0=NO )
Table cut-offs 3: RA/DEC angular rate (     0.0=NO )                           
*******************************************************************************
 Date__(UT)__HR:MN     R.A._________(ICRF)_________DEC
******************************************************
$$SOE
 2018-Nov-15 08:32  m  23 00 33.050750 -07 24 51.24784
 2018-Nov-15 08:33  m  23 00 33.050112 -07 24 51.24106
 2018-Nov-15 08:34  m  23 00 33.049474 -07 24 51.23427
 2018-Nov-15 08:35  m  23 00 33.048838 -07 24 51.22749
 2018-Nov-15 08:36  m  23 00 33.048202 -07 24 51.22071
 2018-Nov-15 08:37  m  23 00 33.047567 -07 24 51.21392
 2018-Nov-15 08:38  m  23 00 33.046933 -07 24 51.20714
 2018-Nov-15 08:39  m  23 00 33.046300 -07 24 51.20036
 2018-Nov-15 08:40  m  23 00 33.045667 -07 24 51.19357
 2018-Nov-15 08:41  m  23 00 33.045035 -07 24 51.18679
 2018-Nov-15 08:42  m  23 00 33.044403 -07 24 51.18000
 2018-Nov-15 08:43  m  23 00 33.043773 -07 24 51.17322
 2018-Nov-15 08:44  m  23 00 33.043143 -07 24 51.16643
 2018-Nov-15 08:45  m  23 00 33.042514 -07 24 51.15965
 2018-Nov-15 08:46  m  23 00 33.041885 -07 24 51.15286
 2018-Nov-15 08:47  m  23 00 33.041258 -07 24 51.14608
 2018-Nov-15 08:48  m  23 00 33.040631 -07 24 51.13929
 2018-Nov-15 08:49  m  23 00 33.040004 -07 24 51.13251
 2018-Nov-15 08:50  m  23 00 33.039379 -07 24 51.12572
 2018-Nov-15 08:51  m  23 00 33.038754 -07 24 51.11893
 2018-Nov-15 08:52  m  23 00 33.038130 -07 24 51.11215
 2018-Nov-15 08:53  m  23 00 33.037507 -07 24 51.10536
 2018-Nov-15 08:54  m  23 00 33.036884 -07 24 51.09857
 2018-Nov-15 08:55  m  23 00 33.036263 -07 24 51.09179
 2018-Nov-15 08:56  m  23 00 33.035641 -07 24 51.08500
 2018-Nov-15 08:57  m  23 00 33.035021 -07 24 51.07821
 2018-Nov-15 08:58  m  23 00 33.034402 -07 24 51.07142
 2018-Nov-15 08:59  m  23 00 33.033783 -07 24 51.06464
 2018-Nov-15 09:00  m  23 00 33.033165 -07 24 51.05785
 2018-Nov-15 09:01  m  23 00 33.032547 -07 24 51.05106
 2018-Nov-15 09:02  m  23 00 33.031931 -07 24 51.04427
 2018-Nov-15 09:03  m  23 00 33.031315 -07 24 51.03749
 2018-Nov-15 09:04  m  23 00 33.030700 -07 24 51.03070
 2018-Nov-15 09:05  m  23 00 33.030086 -07 24 51.02391
 2018-Nov-15 09:06  m  23 00 33.029472 -07 24 51.01712
 2018-Nov-15 09:07  m  23 00 33.028859 -07 24 51.01034
 2018-Nov-15 09:08  m  23 00 33.028247 -07 24 51.00355
 2018-Nov-15 09:09  m  23 00 33.027636 -07 24 50.99676
 2018-Nov-15 09:10  m  23 00 33.027025 -07 24 50.98997
 2018-Nov-15 09:11  m  23 00 33.026415 -07 24 50.98318
 2018-Nov-15 09:12  m  23 00 33.025806 -07 24 50.97640
 2018-Nov-15 09:13  m  23 00 33.025198 -07 24 50.96961
 2018-Nov-15 09:14  m  23 00 33.024590 -07 24 50.96282
 2018-Nov-15 09:15  m  23 00 33.023984 -07 24 50.95603
 2018-Nov-15 09:16  m  23 00 33.023378 -07 24 50.94925
 2018-Nov-15 09:17  m  23 00 33.022772 -07 24 50.94246
 2018-Nov-15 09:18  m  23 00 33.022168 -07 24 50.93567
 2018-Nov-15 09:19  m  23 00 33.021564 -07 24 50.92888
 2018-Nov-15 09:20  m  23 00 33.020961 -07 24 50.92210
 2018-Nov-15 09:21  m  23 00 33.020359 -07 24 50.91531
 2018-Nov-15 09:22  m  23 00 33.019757 -07 24 50.90852
 2018-Nov-15 09:23  m  23 00 33.019157 -07 24 50.90173
 2018-Nov-15 09:24  m  23 00 33.018557 -07 24 50.89495
 2018-Nov-15 09:25  m  23 00 33.017958 -07 24 50.88816
 2018-Nov-15 09:26  m  23 00 33.017359 -07 24 50.88137
 2018-Nov-15 09:27  m  23 00 33.016762 -07 24 50.87459
 2018-Nov-15 09:28  m  23 00 33.016165 -07 24 50.86780
 2018-Nov-15 09:29  m  23 00 33.015569 -07 24 50.86101
 2018-Nov-15 09:30  m  23 00 33.014973 -07 24 50.85423
 2018-Nov-15 09:31  m  23 00 33.014379 -07 24 50.84744
 2018-Nov-15 09:32  m  23 00 33.013785 -07 24 50.84066
 2018-Nov-15 09:33  m  23 00 33.013192 -07 24 50.83387
 2018-Nov-15 09:34  m  23 00 33.012600 -07 24 50.82709
 2018-Nov-15 09:35  m  23 00 33.012008 -07 24 50.82030
 2018-Nov-15 09:36  m  23 00 33.011418 -07 24 50.81352
 2018-Nov-15 09:37  m  23 00 33.010828 -07 24 50.80673
 2018-Nov-15 09:38  m  23 00 33.010238 -07 24 50.79995
 2018-Nov-15 09:39  m  23 00 33.009650 -07 24 50.79316
 2018-Nov-15 09:40  m  23 00 33.009063 -07 24 50.78638
 2018-Nov-15 09:41  m  23 00 33.008476 -07 24 50.77960
 2018-Nov-15 09:42  m  23 00 33.007890 -07 24 50.77281
 2018-Nov-15 09:43  m  23 00 33.007304 -07 24 50.76603
 2018-Nov-15 09:44  m  23 00 33.006720 -07 24 50.75925
 2018-Nov-15 09:45  m  23 00 33.006136 -07 24 50.75246
 2018-Nov-15 09:46  m  23 00 33.005553 -07 24 50.74568
 2018-Nov-15 09:47  m  23 00 33.004971 -07 24 50.73890
 2018-Nov-15 09:48  m  23 00 33.004390 -07 24 50.73212
 2018-Nov-15 09:49  m  23 00 33.003809 -07 24 50.72534
 2018-Nov-15 09:50  m  23 00 33.003229 -07 24 50.71855
 2018-Nov-15 09:51  m  23 00 33.002650 -07 24 50.71177
 2018-Nov-15 09:52  m  23 00 33.002072 -07 24 50.70499
 2018-Nov-15 09:53  m  23 00 33.001495 -07 24 50.69821
 2018-Nov-15 09:54  m  23 00 33.000918 -07 24 50.69143
 2018-Nov-15 09:55  m  23 00 33.000342 -07 24 50.68466
 2018-Nov-15 09:56  m  23 00 32.999767 -07 24 50.67788
 2018-Nov-15 09:57  m  23 00 32.999193 -07 24 50.67110
 2018-Nov-15 09:58  m  23 00 32.998619 -07 24 50.66432
 2018-Nov-15 09:59  m  23 00 32.998047 -07 24 50.65754
 2018-Nov-15 10:00  m  23 00 32.997475 -07 24 50.65077
 2018-Nov-15 10:01  m  23 00 32.996903 -07 24 50.64399
 2018-Nov-15 10:02  m  23 00 32.996333 -07 24 50.63721
 2018-Nov-15 10:03  m  23 00 32.995763 -07 24 50.63044
 2018-Nov-15 10:04     23 00 32.995195 -07 24 50.62366
 2018-Nov-15 10:05     23 00 32.994627 -07 24 50.61689
 2018-Nov-15 10:06     23 00 32.994059 -07 24 50.61011
 2018-Nov-15 10:07     23 00 32.993493 -07 24 50.60334
 2018-Nov-15 10:08     23 00 32.992927 -07 24 50.59657
 2018-Nov-15 10:09     23 00 32.992363 -07 24 50.58979
 2018-Nov-15 10:10     23 00 32.991799 -07 24 50.58302
 2018-Nov-15 10:11     23 00 32.991235 -07 24 50.57625
 2018-Nov-15 10:12     23 00 32.990673 -07 24 50.56948
 2018-Nov-15 10:13     23 00 32.990111 -07 24 50.56271
 2018-Nov-15 10:14     23 00 32.989550 -07 24 50.55594
 2018-Nov-15 10:15     23 00 32.988990 -07 24 50.54917
 2018-Nov-15 10:16     23 00 32.988431 -07 24 50.54240
 2018-Nov-15 10:17     23 00 32.987873 -07 24 50.53563
 2018-Nov-15 10:18     23 00 32.987315 -07 24 50.52886
 2018-Nov-15 10:19     23 00 32.986758 -07 24 50.52209
 2018-Nov-15 10:20     23 00 32.986202 -07 24 50.51533
 2018-Nov-15 10:21     23 00 32.985647 -07 24 50.50856
 2018-Nov-15 10:22     23 00 32.985092 -07 24 50.50179
 2018-Nov-15 10:23     23 00 32.984538 -07 24 50.49503
 2018-Nov-15 10:24     23 00 32.983985 -07 24 50.48827
 2018-Nov-15 10:25     23 00 32.983433 -07 24 50.48150
 2018-Nov-15 10:26     23 00 32.982882 -07 24 50.47474
 2018-Nov-15 10:27     23 00 32.982332 -07 24 50.46798
 2018-Nov-15 10:28     23 00 32.981782 -07 24 50.46121
 2018-Nov-15 10:29     23 00 32.981233 -07 24 50.45445
 2018-Nov-15 10:30     23 00 32.980685 -07 24 50.44769
 2018-Nov-15 10:31     23 00 32.980138 -07 24 50.44093
 2018-Nov-15 10:32     23 00 32.979591 -07 24 50.43418
 2018-Nov-15 10:33     23 00 32.979045 -07 24 50.42742
 2018-Nov-15 10:34     23 00 32.978501 -07 24 50.42066
 2018-Nov-15 10:35     23 00 32.977956 -07 24 50.41390
 2018-Nov-15 10:36     23 00 32.977413 -07 24 50.40715
 2018-Nov-15 10:37     23 00 32.976871 -07 24 50.40039
 2018-Nov-15 10:38     23 00 32.976329 -07 24 50.39364
 2018-Nov-15 10:39     23 00 32.975788 -07 24 50.38688
 2018-Nov-15 10:40     23 00 32.975248 -07 24 50.38013
 2018-Nov-15 10:41     23 00 32.974709 -07 24 50.37338
 2018-Nov-15 10:42     23 00 32.974170 -07 24 50.36663
 2018-Nov-15 10:43     23 00 32.973633 -07 24 50.35988
 2018-Nov-15 10:44     23 00 32.973096 -07 24 50.35313
 2018-Nov-15 10:45     23 00 32.972560 -07 24 50.34638
 2018-Nov-15 10:46     23 00 32.972025 -07 24 50.33963
 2018-Nov-15 10:47     23 00 32.971490 -07 24 50.33288
 2018-Nov-15 10:48     23 00 32.970956 -07 24 50.32614
 2018-Nov-15 10:49     23 00 32.970424 -07 24 50.31939
 2018-Nov-15 10:50     23 00 32.969892 -07 24 50.31265
 2018-Nov-15 10:51     23 00 32.969360 -07 24 50.30590
